Satellite: NOAA-10
Catalog number: 16969
Epoch time:      10041.62852476
Element set:    0951
Inclination:      098.6723 deg
RA of node:       071.7048 deg
Eccentricity:    0.0011802
Arg of perigee:   217.9014 deg
Mean anomaly:     142.1355 deg
Mean motion:   14.27405348 rev/day
Decay rate:      -1.00e-06 rev/day^2
Epoch rev:           21752
Checksum:              279

Satellite: NOAA-11
Catalog number: 19531
Epoch time:      10041.30709999
Element set:    0966
Inclination:      098.7716 deg
RA of node:       132.4875 deg
Eccentricity:    0.0011761
Arg of perigee:   146.5157 deg
Mean anomaly:     213.6766 deg
Mean motion:   14.14914275 rev/day
Decay rate:       1.04e-06 rev/day^2
Epoch rev:           10319
Checksum:              305

Satellite: NOAA-12
Catalog number: 21263
Epoch time:      10041.94926153
Element set:    0449
Inclination:      098.7695 deg
RA of node:       055.1002 deg
Eccentricity:    0.0012539
Arg of perigee:   169.5366 deg
Mean anomaly:     190.6090 deg
Mean motion:   14.25614530 rev/day
Decay rate:       -7.0e-07 rev/day^2
Epoch rev:           97441
Checksum:              292

Satellite: MET-3/5
Catalog number: 21655
Epoch time:      10041.61598732
Element set:    0734
Inclination:      082.5558 deg
RA of node:       038.0556 deg
Eccentricity:    0.0012535
Arg of perigee:   309.7623 deg
Mean anomaly:     050.2340 deg
Mean motion:   13.17022721 rev/day
Decay rate:        5.1e-07 rev/day^2
Epoch rev:           88901
Checksum:              277

Satellite: MET-2/21
Catalog number: 22782
Epoch time:      10041.38115158
Element set:    0693
Inclination:      082.5499 deg
RA of node:       353.0431 deg
Eccentricity:    0.0023540
Arg of perigee:   041.4653 deg
Mean anomaly:     318.8278 deg
Mean motion:   13.83641845 rev/day
Decay rate:        2.4e-07 rev/day^2
Epoch rev:           83054
Checksum:              292

Satellite: OKEAN-4
Catalog number: 23317
Epoch time:      10042.73813439
Element set:     151
Inclination:      082.5410 deg
RA of node:       110.9555 deg
Eccentricity:    0.0020532
Arg of perigee:   297.9306 deg
Mean anomaly:     061.9847 deg
Mean motion:   14.82764539 rev/day
Decay rate:       1.21e-06 rev/day^2
Epoch rev:           82786
Checksum:              295

Satellite: NOAA-14
Catalog number: 23455
Epoch time:      10041.81463073
Element set:    0943
Inclination:      098.8873 deg
RA of node:       123.4019 deg
Eccentricity:    0.0008640
Arg of perigee:   232.1327 deg
Mean anomaly:     127.9067 deg
Mean motion:   14.13778467 rev/day
Decay rate:        7.0e-08 rev/day^2
Epoch rev:           77964
Checksum:              311

Satellite: NOAA-15
Catalog number: 25338
Epoch time:      10041.89081998
Element set:    0264
Inclination:      098.6091 deg
RA of node:       031.1488 deg
Eccentricity:    0.0011629
Arg of perigee:   083.9196 deg
Mean anomaly:     276.3299 deg
Mean motion:   14.24806019 rev/day
Decay rate:        3.2e-07 rev/day^2
Epoch rev:           61076
Checksum:              319

Satellite: RESURS
Catalog number: 25394
Epoch time:      10041.67781549
Element set:     428
Inclination:      098.3164 deg
RA of node:       066.5866 deg
Eccentricity:    0.0000761
Arg of perigee:   197.0547 deg
Mean anomaly:     163.0616 deg
Mean motion:   14.24192115 rev/day
Decay rate:       -5.1e-07 rev/day^2
Epoch rev:           60234
Checksum:              290

Satellite: FENGYUN1
Catalog number: 25730
Epoch time:      10041.83275509
Element set:    0972
Inclination:      098.7762 deg
RA of node:       010.1353 deg
Eccentricity:    0.0023376
Arg of perigee:   263.2612 deg
Mean anomaly:     096.5918 deg
Mean motion:   14.08164733 rev/day
Decay rate:      -2.16e-06 rev/day^2
Epoch rev:           55390
Checksum:              292

Satellite: OKEAN-0
Catalog number: 25860
Epoch time:      10041.78111680
Element set:    0911
Inclination:      097.8174 deg
RA of node:       018.8839 deg
Eccentricity:    0.0001727
Arg of perigee:   098.2014 deg
Mean anomaly:     261.9390 deg
Mean motion:   14.73612128 rev/day
Decay rate:        5.1e-07 rev/day^2
Epoch rev:           56828
Checksum:              295

Satellite: NOAA-16
Catalog number: 26536
Epoch time:      10041.86056265
Element set:    0742
Inclination:      099.1783 deg
RA of node:       056.3134 deg
Eccentricity:    0.0009955
Arg of perigee:   335.3995 deg
Mean anomaly:     024.6663 deg
Mean motion:   14.12546792 rev/day
Decay rate:       1.51e-06 rev/day^2
Epoch rev:           48399
Checksum:              328

Satellite: NOAA-17
Catalog number: 27453
Epoch time:      10041.88406090
Element set:    0749
Inclination:      098.4513 deg
RA of node:       097.3121 deg
Eccentricity:    0.0012324
Arg of perigee:   143.1747 deg
Mean anomaly:     217.0259 deg
Mean motion:   14.24130212 rev/day
Decay rate:       2.14e-06 rev/day^2
Epoch rev:           39672
Checksum:              272

Satellite: NOAA-18
Catalog number: 28654
Epoch time:      10041.89684983
Element set:    0232
Inclination:      098.9355 deg
RA of node:       348.6138 deg
Eccentricity:    0.0015002
Arg of perigee:   051.9437 deg
Mean anomaly:     308.3104 deg
Mean motion:   14.11328152 rev/day
Decay rate:       4.23e-06 rev/day^2
Epoch rev:           24362
Checksum:              294

Satellite: NOAA-19
Catalog number: 33591
Epoch time:      10041.85736897
Element set:    0437
Inclination:      098.7756 deg
RA of node:       346.7460 deg
Eccentricity:    0.0013343
Arg of perigee:   289.3253 deg
Mean anomaly:     070.6483 deg
Mean motion:   14.11023106 rev/day
Decay rate:      -1.28e-06 rev/day^2
Epoch rev:           05209
Checksum:              307

/EX
SB KEPS @ AMSAT  $ORB10042.M
Orbital Elements  10042.MISC

HR AMSAT ORBITAL ELEMENTS FOR MANNED AND MISCELLANEOUS SATELLITES
FROM WA5QGD FORT WORTH,TX February 11, 2010
Send Subscribe/unsubscribe to KEPS at http://www.amsat.org/mailman/listinfo/keps
BID: ORB10042.M
TO ALL RADIO AMATEURS BT

Satellite: HUBBLE
Catalog number: 20580
Epoch time:      10042.17471048
Element set:     515
Inclination:      028.4707 deg
RA of node:       342.4565 deg
Eccentricity:    0.0003224
Arg of perigee:   297.8634 deg
Mean anomaly:     062.1676 deg
Mean motion:   15.00891604 rev/day
Decay rate:       4.46e-06 rev/day^2
Epoch rev:           88579
Checksum:              294

Satellite: ISS
Catalog number: 25544
Epoch time:      10042.75330333
Element set:     565
Inclination:      051.6452 deg
RA of node:       154.6505 deg
Eccentricity:    0.0011053
Arg of perigee:   318.5383 deg
Mean anomaly:     197.9759 deg
Mean motion:   15.75838130 rev/day
Decay rate:     -1.711e-05 rev/day^2
Epoch rev:           64371
Checksum:              288

Satellite: CO-58
Catalog number: 28895
Epoch time:      10041.73094779
Element set:    0511
Inclination:      098.0327 deg
RA of node:       290.2690 deg
Eccentricity:    0.0017308
Arg of perigee:   324.6028 deg
Mean anomaly:     035.4022 deg
Mean motion:   14.59843440 rev/day
Decay rate:        9.3e-07 rev/day^2
Epoch rev:           22853
Checksum:              306

Satellite: FALCON
Catalog number: 30776
Epoch time:      10041.52024305
Element set:    0771
Inclination:      035.4330 deg
RA of node:       093.2019 deg
Eccentricity:    0.0000414
Arg of perigee:   239.0767 deg
Mean anomaly:     120.9909 deg
Mean motion:   15.03453757 rev/day
Decay rate:       6.34e-06 rev/day^2
Epoch rev:           16098
Checksum:              266

Satellite: MAST
Catalog number: 31126
Epoch time:      10041.69968509
Element set:    0797
Inclination:      097.9565 deg
RA of node:       090.1467 deg
Eccentricity:    0.0093653
Arg of perigee:   259.2036 deg
Mean anomaly:     099.8618 deg
Mean motion:   14.53551043 rev/day
Decay rate:       -4.3e-07 rev/day^2
Epoch rev:           14968
Checksum:              333

Satellite: CAPE1
Catalog number: 31130
Epoch time:      10041.69725349
Element set:    0813
Inclination:      097.9550 deg
RA of node:       087.8081 deg
Eccentricity:    0.0101693
Arg of perigee:   266.4860 deg
Mean anomaly:     092.4689 deg
Mean motion:   14.52132920 rev/day
Decay rate:       3.95e-06 rev/day^2
Epoch rev:           14930
Checksum:              301

Satellite: COMPASS
Catalog number: 32787
Epoch time:      10041.28818939
Element set:    0594
Inclination:      097.9094 deg
RA of node:       107.7109 deg
Eccentricity:    0.0015355
Arg of perigee:   342.3060 deg
Mean anomaly:     017.7622 deg
Mean motion:   14.81754304 rev/day
Decay rate:       6.85e-06 rev/day^2
Epoch rev:           09670
Checksum:              311

Satellite: AAUSAT2
Catalog number: 32788
Epoch time:      10041.70830486
Element set:    0588
Inclination:      097.9106 deg
RA of node:       108.2282 deg
Eccentricity:    0.0015031
Arg of perigee:   342.5027 deg
Mean anomaly:     017.5644 deg
Mean motion:   14.81885974 rev/day
Decay rate:       1.46e-06 rev/day^2
Epoch rev:           09677
Checksum:              312

Satellite: DO-64
Catalog number: 32789
Epoch time:      10041.79385276
Element set:     603
Inclination:      097.9153 deg
RA of node:       108.6550 deg
Eccentricity:    0.0015238
Arg of perigee:   339.9445 deg
Mean anomaly:     020.1175 deg
Mean motion:   14.81951086 rev/day
Decay rate:       3.07e-06 rev/day^2
Epoch rev:            9678
Checksum:              325

